ASTROCAST-0404          
1 55112U 23001DH  26068.80836714  .00008870  00000+0  34436-3 0  9994
2 55112  97.5646 161.5422 0006847   1.1317 358.9936 15.26309833129366
STARLINK-31547          
1 59364U 24060S   26068.55542380 -.00000157  00000+0  38318-5 0  9994
2 59364  43.0032 249.2555 0001191 266.1269  93.9446 15.27570970110175
